<?xml version="1.0" encoding="UTF-8"?>
<ndm xmlns:xsi="http://www.w3.org/2001/XMLSchema-instance" xsi:noNamespaceSchemaLocation="https://sanaregistry.org/r/ndmxml_unqualified/ndmxml-2.0.0-master-2.0.xsd">
<omm id="CCSDS_OMM_VERS" version="2.0">
<header><CREATION_DATE/><ORIGINATOR/></header><body><segment><metadata><OBJECT_NAME>IRIDIUM 166</OBJECT_NAME><OBJECT_ID>2018-061B</OBJECT_ID><CENTER_NAME>EARTH</CENTER_NAME><REF_FRAME>TEME</REF_FRAME><TIME_SYSTEM>UTC</TIME_SYSTEM><MEAN_ELEMENT_THEORY>SGP4</MEAN_ELEMENT_THEORY></metadata><data><meanElements><EPOCH>2023-12-03T20:07:58.232352</EPOCH><MEAN_MOTION>14.34215984</MEAN_MOTION><ECCENTRICITY>.0002357</ECCENTRICITY><INCLINATION>86.3965</INCLINATION><RA_OF_ASC_NODE>83.8887</RA_OF_ASC_NODE><ARG_OF_PERICENTER>96.0651</ARG_OF_PERICENTER><MEAN_ANOMALY>264.0813</MEAN_ANOMALY></meanElements><tleParameters><EPHEMERIS_TYPE>0</EPHEMERIS_TYPE><CLASSIFICATION_TYPE>U</CLASSIFICATION_TYPE><NORAD_CAT_ID>43570</NORAD_CAT_ID><ELEMENT_SET_NO>999</ELEMENT_SET_NO><REV_AT_EPOCH>28062</REV_AT_EPOCH><BSTAR>.22447E-3</BSTAR><MEAN_MOTION_DOT>.648E-5</MEAN_MOTION_DOT><MEAN_MOTION_DDOT>0</MEAN_MOTION_DDOT></tleParameters></data></segment></body></omm>
<omm id="CCSDS_OMM_VERS" version="2.0">
<header><CREATION_DATE/><ORIGINATOR/></header><body><segment><metadata><OBJECT_NAME>IRIDIUM 158</OBJECT_NAME><OBJECT_ID>2018-061C</OBJECT_ID><CENTER_NAME>EARTH</CENTER_NAME><REF_FRAME>TEME</REF_FRAME><TIME_SYSTEM>UTC</TIME_SYSTEM><MEAN_ELEMENT_THEORY>SGP4</MEAN_ELEMENT_THEORY></metadata><data><meanElements><EPOCH>2023-12-04T08:46:02.288064</EPOCH><MEAN_MOTION>14.34214603</MEAN_MOTION><ECCENTRICITY>.0002192</ECCENTRICITY><INCLINATION>86.3965</INCLINATION><RA_OF_ASC_NODE>83.6775</RA_OF_ASC_NODE><ARG_OF_PERICENTER>87.1948</ARG_OF_PERICENTER><MEAN_ANOMALY>272.9498</MEAN_ANOMALY></meanElements><tleParameters><EPHEMERIS_TYPE>0</EPHEMERIS_TYPE><CLASSIFICATION_TYPE>U</CLASSIFICATION_TYPE><NORAD_CAT_ID>43571</NORAD_CAT_ID><ELEMENT_SET_NO>999</ELEMENT_SET_NO><REV_AT_EPOCH>28067</REV_AT_EPOCH><BSTAR>.19219E-3</BSTAR><MEAN_MOTION_DOT>.558E-5</MEAN_MOTION_DOT><MEAN_MOTION_DDOT>0</MEAN_MOTION_DDOT></tleParameters></data></segment></body></omm>
<omm id="CCSDS_OMM_VERS" version="2.0">
<header><CREATION_DATE/><ORIGINATOR/></header><body><segment><metadata><OBJECT_NAME>IRIDIUM 165</OBJECT_NAME><OBJECT_ID>2018-061D</OBJECT_ID><CENTER_NAME>EARTH</CENTER_NAME><REF_FRAME>TEME</REF_FRAME><TIME_SYSTEM>UTC</TIME_SYSTEM><MEAN_ELEMENT_THEORY>SGP4</MEAN_ELEMENT_THEORY></metadata><data><meanElements><EPOCH>2023-12-04T09:22:34.589568</EPOCH><MEAN_MOTION>14.34219561</MEAN_MOTION><ECCENTRICITY>.0002264</ECCENTRICITY><INCLINATION>86.3965</INCLINATION><RA_OF_ASC_NODE>83.6960</RA_OF_ASC_NODE><ARG_OF_PERICENTER>91.6646</ARG_OF_PERICENTER><MEAN_ANOMALY>268.4810</MEAN_ANOMALY></meanElements><tleParameters><EPHEMERIS_TYPE>0</EPHEMERIS_TYPE><CLASSIFICATION_TYPE>U</CLASSIFICATION_TYPE><NORAD_CAT_ID>43572</NORAD_CAT_ID><ELEMENT_SET_NO>999</ELEMENT_SET_NO><REV_AT_EPOCH>28069</REV_AT_EPOCH><BSTAR>.95192E-5</BSTAR><MEAN_MOTION_DOT>.46E-6</MEAN_MOTION_DOT><MEAN_MOTION_DDOT>0</MEAN_MOTION_DDOT></tleParameters></data></segment></body></omm>
<omm id="CCSDS_OMM_VERS" version="2.0">
<header><CREATION_DATE/><ORIGINATOR/></header><body><segment><metadata><OBJECT_NAME>IRIDIUM 155</OBJECT_NAME><OBJECT_ID>2018-061E</OBJECT_ID><CENTER_NAME>EARTH</CENTER_NAME><REF_FRAME>TEME</REF_FRAME><TIME_SYSTEM>UTC</TIME_SYSTEM><MEAN_ELEMENT_THEORY>SGP4</MEAN_ELEMENT_THEORY></metadata><data><meanElements><EPOCH>2023-12-03T09:01:12.626112</EPOCH><MEAN_MOTION>14.34210789</MEAN_MOTION><ECCENTRICITY>.0002278</ECCENTRICITY><INCLINATION>86.3962</INCLINATION><RA_OF_ASC_NODE>84.0347</RA_OF_ASC_NODE><ARG_OF_PERICENTER>103.0704</ARG_OF_PERICENTER><MEAN_ANOMALY>257.0746</MEAN_ANOMALY></meanElements><tleParameters><EPHEMERIS_TYPE>0</EPHEMERIS_TYPE><CLASSIFICATION_TYPE>U</CLASSIFICATION_TYPE><NORAD_CAT_ID>43573</NORAD_CAT_ID><ELEMENT_SET_NO>999</ELEMENT_SET_NO><REV_AT_EPOCH>28051</REV_AT_EPOCH><BSTAR>.2561E-3</BSTAR><MEAN_MOTION_DOT>.737E-5</MEAN_MOTION_DOT><MEAN_MOTION_DDOT>0</MEAN_MOTION_DDOT></tleParameters></data></segment></body></omm>
<omm id="CCSDS_OMM_VERS" version="2.0">
<header><CREATION_DATE/><ORIGINATOR/></header><body><segment><metadata><OBJECT_NAME>IRIDIUM 154</OBJECT_NAME><OBJECT_ID>2018-061F</OBJECT_ID><CENTER_NAME>EARTH</CENTER_NAME><REF_FRAME>TEME</REF_FRAME><TIME_SYSTEM>UTC</TIME_SYSTEM><MEAN_ELEMENT_THEORY>SGP4</MEAN_ELEMENT_THEORY></metadata><data><meanElements><EPOCH>2023-12-04T08:00:21.747456</EPOCH><MEAN_MOTION>14.34221072</MEAN_MOTION><ECCENTRICITY>.0001757</ECCENTRICITY><INCLINATION>86.3967</INCLINATION><RA_OF_ASC_NODE>83.7228</RA_OF_ASC_NODE><ARG_OF_PERICENTER>97.0877</ARG_OF_PERICENTER><MEAN_ANOMALY>263.0519</MEAN_ANOMALY></meanElements><tleParameters><EPHEMERIS_TYPE>0</EPHEMERIS_TYPE><CLASSIFICATION_TYPE>U</CLASSIFICATION_TYPE><NORAD_CAT_ID>43574</NORAD_CAT_ID><ELEMENT_SET_NO>999</ELEMENT_SET_NO><REV_AT_EPOCH>28070</REV_AT_EPOCH><BSTAR>.20575E-3</BSTAR><MEAN_MOTION_DOT>.596E-5</MEAN_MOTION_DOT><MEAN_MOTION_DDOT>0</MEAN_MOTION_DDOT></tleParameters></data></segment></body></omm>
<omm id="CCSDS_OMM_VERS" version="2.0">
<header><CREATION_DATE/><ORIGINATOR/></header><body><segment><metadata><OBJECT_NAME>IRIDIUM 163</OBJECT_NAME><OBJECT_ID>2018-061G</OBJECT_ID><CENTER_NAME>EARTH</CENTER_NAME><REF_FRAME>TEME</REF_FRAME><TIME_SYSTEM>UTC</TIME_SYSTEM><MEAN_ELEMENT_THEORY>SGP4</MEAN_ELEMENT_THEORY></metadata><data><meanElements><EPOCH>2023-12-03T19:49:42.077280</EPOCH><MEAN_MOTION>14.34215201</MEAN_MOTION><ECCENTRICITY>.0001931</ECCENTRICITY><INCLINATION>86.3964</INCLINATION><RA_OF_ASC_NODE>83.8790</RA_OF_ASC_NODE><ARG_OF_PERICENTER>96.6744</ARG_OF_PERICENTER><MEAN_ANOMALY>263.4672</MEAN_ANOMALY></meanElements><tleParameters><EPHEMERIS_TYPE>0</EPHEMERIS_TYPE><CLASSIFICATION_TYPE>U</CLASSIFICATION_TYPE><NORAD_CAT_ID>43575</NORAD_CAT_ID><ELEMENT_SET_NO>999</ELEMENT_SET_NO><REV_AT_EPOCH>28060</REV_AT_EPOCH><BSTAR>.22766E-3</BSTAR><MEAN_MOTION_DOT>.657E-5</MEAN_MOTION_DOT><MEAN_MOTION_DDOT>0</MEAN_MOTION_DDOT></tleParameters></data></segment></body></omm>
<omm id="CCSDS_OMM_VERS" version="2.0">
<header><CREATION_DATE/><ORIGINATOR/></header><body><segment><metadata><OBJECT_NAME>IRIDIUM 156</OBJECT_NAME><OBJECT_ID>2018-061H</OBJECT_ID><CENTER_NAME>EARTH</CENTER_NAME><REF_FRAME>TEME</REF_FRAME><TIME_SYSTEM>UTC</TIME_SYSTEM><MEAN_ELEMENT_THEORY>SGP4</MEAN_ELEMENT_THEORY></metadata><data><meanElements><EPOCH>2023-12-03T19:13:10.648416</EPOCH><MEAN_MOTION>14.34217690</MEAN_MOTION><ECCENTRICITY>.0002304</ECCENTRICITY><INCLINATION>86.3965</INCLINATION><RA_OF_ASC_NODE>83.8957</RA_OF_ASC_NODE><ARG_OF_PERICENTER>92.7816</ARG_OF_PERICENTER><MEAN_ANOMALY>267.3644</MEAN_ANOMALY></meanElements><tleParameters><EPHEMERIS_TYPE>0</EPHEMERIS_TYPE><CLASSIFICATION_TYPE>U</CLASSIFICATION_TYPE><NORAD_CAT_ID>43576</NORAD_CAT_ID><ELEMENT_SET_NO>999</ELEMENT_SET_NO><REV_AT_EPOCH>28058</REV_AT_EPOCH><BSTAR>.23553E-3</BSTAR><MEAN_MOTION_DOT>.679E-5</MEAN_MOTION_DOT><MEAN_MOTION_DDOT>0</MEAN_MOTION_DDOT></tleParameters></data></segment></body></omm>
<omm id="CCSDS_OMM_VERS" version="2.0">
<header><CREATION_DATE/><ORIGINATOR/></header><body><segment><metadata><OBJECT_NAME>IRIDIUM 164</OBJECT_NAME><OBJECT_ID>2018-061J</OBJECT_ID><CENTER_NAME>EARTH</CENTER_NAME><REF_FRAME>TEME</REF_FRAME><TIME_SYSTEM>UTC</TIME_SYSTEM><MEAN_ELEMENT_THEORY>SGP4</MEAN_ELEMENT_THEORY></metadata><data><meanElements><EPOCH>2023-12-03T08:42:55.905120</EPOCH><MEAN_MOTION>14.34213198</MEAN_MOTION><ECCENTRICITY>.000221</ECCENTRICITY><INCLINATION>86.3962</INCLINATION><RA_OF_ASC_NODE>84.1044</RA_OF_ASC_NODE><ARG_OF_PERICENTER>91.3481</ARG_OF_PERICENTER><MEAN_ANOMALY>268.7968</MEAN_ANOMALY></meanElements><tleParameters><EPHEMERIS_TYPE>0</EPHEMERIS_TYPE><CLASSIFICATION_TYPE>U</CLASSIFICATION_TYPE><NORAD_CAT_ID>43577</NORAD_CAT_ID><ELEMENT_SET_NO>999</ELEMENT_SET_NO><REV_AT_EPOCH>28057</REV_AT_EPOCH><BSTAR>.23098E-3</BSTAR><MEAN_MOTION_DOT>.667E-5</MEAN_MOTION_DOT><MEAN_MOTION_DDOT>0</MEAN_MOTION_DDOT></tleParameters></data></segment></body></omm>

</ndm>
