IRIDIUM 166             
1 43570U 18061B   23337.83886843  .00000648  00000+0  22447-3 0  9990
2 43570  86.3965  83.8887 0002357  96.0651 264.0813 14.34215984280627
IRIDIUM 158             
1 43571U 18061C   23338.36530426  .00000558  00000+0  19219-3 0  9996
2 43571  86.3965  83.6775 0002192  87.1948 272.9498 14.34214603280678
IRIDIUM 165             
1 43572U 18061D   23338.39067812  .00000046  00000+0  95192-5 0  9992
2 43572  86.3965  83.6960 0002264  91.6646 268.4810 14.34219561280698
IRIDIUM 155             
1 43573U 18061E   23337.37584058  .00000737  00000+0  25610-3 0  9999
2 43573  86.3962  84.0347 0002278 103.0704 257.0746 14.34210789280514
IRIDIUM 154             
1 43574U 18061F   23338.33358504  .00000596  00000+0  20575-3 0  9990
2 43574  86.3967  83.7228 0001757  97.0877 263.0519 14.34221072280701
IRIDIUM 163             
1 43575U 18061G   23337.82618145  .00000657  00000+0  22766-3 0  9996
2 43575  86.3964  83.8790 0001931  96.6744 263.4672 14.34215201280606
IRIDIUM 156             
1 43576U 18061H   23337.80081769  .00000679  00000+0  23553-3 0  9990
2 43576  86.3965  83.8957 0002304  92.7816 267.3644 14.34217690280588
IRIDIUM 164             
1 43577U 18061J   23337.36314705  .00000667  00000+0  23098-3 0  9992
2 43577  86.3962  84.1044 0002210  91.3481 268.7968 14.34213198280578
